{
 "generated_at": "2026-06-13T08:21:29Z",
 "sources": [
  {
   "name": "CelesTrak",
   "url": "https://celestrak.org/NORAD/elements/",
   "license": "frei verfügbar; Attribution. Ursprünglich USSPACECOM/Space-Track."
  },
  {
   "name": "GCAT (J. McDowell, planet4589.org)",
   "url": "https://planet4589.org/space/gcat/",
   "license": "CC-BY 4.0"
  }
 ],
 "satellites": [
  {
   "norad": 41556,
   "name": "ZIYUAN 3-02 (ZY 3-02)",
   "intl": "2016-033A",
   "group": "resource",
   "gcat": {
    "class": "C",
    "category": "IMG",
    "owner": "GCDX/ZZWYZ",
    "state": "CN"
   },
   "omm": {
    "OBJECT_NAME": "ZIYUAN 3-02 (ZY 3-02)",
    "OBJECT_ID": "2016-033A",
    "EPOCH": "2026-06-12T20:22:32.553696",
    "MEAN_MOTION": 15.21440997,
    "ECCENTRICITY": 0.0011348,
    "INCLINATION": 97.3842,
    "RA_OF_ASC_NODE": 239.7062,
    "ARG_OF_PERICENTER": 307.2471,
    "MEAN_ANOMALY": 52.7729,
    "EPHEMERIS_TYPE": 0,
    "CLASSIFICATION_TYPE": "U",
    "NORAD_CAT_ID": 41556,
    "ELEMENT_SET_NO": 999,
    "REV_AT_EPOCH": 55732,
    "BSTAR": 0.00023721,
    "MEAN_MOTION_DOT": 0.00005268,
    "MEAN_MOTION_DDOT": 0
   }
  }
 ]
}
